start=new Date('2022-05-26T00:00:00.000Z').valueOf();
sats=[{"CLASSIFICATION_TYPE":"U","MEAN_MOTION_DDOT":"0.0000000000000","REF_FRAME":"TEME","MEAN_ELEMENT_THEORY":"SGP4","REV_AT_EPOCH":"6404","APOAPSIS":"548.293","RCS_SIZE":"LARGE","EPHEMERIS_TYPE":"0","FILE":"3464394","EPOCH":"2022-05-25T18:29:05.800992","TIME_SYSTEM":"UTC","NORAD_CAT_ID":"48104","CENTER_NAME":"EARTH","TLE_LINE1":"1 48104U 21027N   22145.77020603  .00001811  00000-0  14044-3 0  9995","GP_ID":"204537999","PERIOD":"95.593","MEAN_ANOMALY":"292.8894","RA_OF_ASC_NODE":"249.2882","BSTAR":"0.00014044000000","COUNTRY_CODE":"US","SEMIMAJOR_AXIS":"6925.370","OBJECT_ID":"2021-027N","SITE":"AFETR","MEAN_MOTION":"15.06393103","MEAN_MOTION_DOT":"0.00001811","ARG_OF_PERICENTER":"67.2256","ECCENTRICITY":"0.00015280","LAUNCH_DATE":"2021-04-07","TLE_LINE2":"2 48104  53.0551 249.2882 0001528  67.2256 292.8894 15.06393103 64044","ELEMENT_SET_NO":"999","DECAY_DATE":null,"OBJECT_NAME":"STARLINK-2439","PERIAPSIS":"546.176","INCLINATION":"53.0551","OBJECT_TYPE":"PAYLOAD"},{"NORAD_CAT_ID":"48105","TIME_SYSTEM":"UTC","GP_ID":"204536748","CENTER_NAME":"EARTH","TLE_LINE1":"1 48105U 21027P   22145.61124299  .00001186  00000-0  98465-4 0  9990","REV_AT_EPOCH":"6478","APOAPSIS":"548.382","RCS_SIZE":"LARGE","EPHEMERIS_TYPE":"0","CLASSIFICATION_TYPE":"U","MEAN_MOTION_DDOT":"0.0000000000000","REF_FRAME":"TEME","MEAN_ELEMENT_THEORY":"SGP4","EPOCH":"2022-05-25T14:40:11.394336","FILE":"3464394","LAUNCH_DATE":"2021-04-07","TLE_LINE2":"2 48105  53.0544 194.9959 0001725  55.7737 304.3415 15.06408460 64785","MEAN_MOTION":"15.06408460","MEAN_MOTION_DOT":"0.00001186","ARG_OF_PERICENTER":"55.7737","ECCENTRICITY":"0.00017250","PERIAPSIS":"545.993","INCLINATION":"53.0544","OBJECT_TYPE":"PAYLOAD","ELEMENT_SET_NO":"999","DECAY_DATE":null,"OBJECT_NAME":"STARLINK-2440","BSTAR":"0.00009846500000","COUNTRY_CODE":"US","PERIOD":"95.592","RA_OF_ASC_NODE":"194.9959","MEAN_ANOMALY":"304.3415","SEMIMAJOR_AXIS":"6925.323","OBJECT_ID":"2021-027P","SITE":"AFETR"},{"EPOCH":"2022-05-25T14:17:38.502528","FILE":"3464394","EPHEMERIS_TYPE":"0","RCS_SIZE":"LARGE","APOAPSIS":"548.152","REV_AT_EPOCH":"6408","MEAN_ELEMENT_THEORY":"SGP4","REF_FRAME":"TEME","MEAN_MOTION_DDOT":"0.0000000000000","CLASSIFICATION_TYPE":"U","GP_ID":"204536998","TLE_LINE1":"1 48106U 21027Q   22145.59558452  .00004514  00000-0  32172-3 0  9990","CENTER_NAME":"EARTH","NORAD_CAT_ID":"48106","TIME_SYSTEM":"UTC","SITE":"AFETR","OBJECT_ID":"2021-027Q","SEMIMAJOR_AXIS":"6925.349","COUNTRY_CODE":"US","BSTAR":"0.00032172000000","PERIOD":"95.592","MEAN_ANOMALY":"281.0879","RA_OF_ASC_NODE":"245.0736","OBJECT_TYPE":"PAYLOAD","INCLINATION":"53.0562","PERIAPSIS":"546.276","OBJECT_NAME":"STARLINK-2442","DECAY_DATE":null,"ELEMENT_SET_NO":"999","LAUNCH_DATE":"2021-04-07","TLE_LINE2":"2 48106  53.0562 245.0736 0001355  79.0262 281.0879 15.06399829 64084","ARG_OF_PERICENTER":"79.0262","ECCENTRICITY":"0.00013550","MEAN_MOTION_DOT":"0.00004514","MEAN_MOTION":"15.06399829"},{"OBJECT_NAME":"STARLINK-2443","DECAY_DATE":null,"ELEMENT_SET_NO":"999","OBJECT_TYPE":"PAYLOAD","INCLINATION":"53.0572","PERIAPSIS":"546.264","ARG_OF_PERICENTER":"85.7408","ECCENTRICITY":"0.00014010","MEAN_MOTION_DOT":"-0.00000197","MEAN_MOTION":"15.06393115","TLE_LINE2":"2 48107  53.0572 244.6973 0001401  85.7408 274.3741 15.06393115 64098","LAUNCH_DATE":"2021-04-07","OBJECT_ID":"2021-027R","SITE":"AFETR","SEMIMAJOR_AXIS":"6925.370","RA_OF_ASC_NODE":"244.6973","PERIOD":"95.593","MEAN_ANOMALY":"274.3741","COUNTRY_CODE":"US","BSTAR":"0.00000565630000","TLE_LINE1":"1 48107U 21027R   22145.67667411 -.00000197  00000-0  56563-5 0  9992","CENTER_NAME":"EARTH","GP_ID":"204538249","TIME_SYSTEM":"UTC","NORAD_CAT_ID":"48107","FILE":"3464394","EPOCH":"2022-05-25T16:14:24.643104","MEAN_ELEMENT_THEORY":"SGP4","REF_FRAME":"TEME","MEAN_MOTION_DDOT":"0.0000000000000","CLASSIFICATION_TYPE":"U","EPHEMERIS_TYPE":"0","RCS_SIZE":"LARGE","APOAPSIS":"548.205","REV_AT_EPOCH":"6409"},{"PERIOD":"95.593","RA_OF_ASC_NODE":"254.2284","MEAN_ANOMALY":"295.6871","COUNTRY_CODE":"US","BSTAR":"0.00008392900000","SITE":"AFETR","OBJECT_ID":"2021-027S","SEMIMAJOR_AXIS":"6925.382","MEAN_MOTION_DOT":"0.00000968","ARG_OF_PERICENTER":"64.4285","ECCENTRICITY":"0.00016200","MEAN_MOTION":"15.06389054","TLE_LINE2":"2 48108  53.0554 254.2284 0001620  64.4285 295.6871 15.06389054 63963","LAUNCH_DATE":"2021-04-07","DECAY_DATE":null,"OBJECT_NAME":"STARLINK-2444","ELEMENT_SET_NO":"999","OBJECT_TYPE":"PAYLOAD","PERIAPSIS":"546.125","INCLINATION":"53.0554","REF_FRAME":"TEME","MEAN_ELEMENT_THEORY":"SGP4","CLASSIFICATION_TYPE":"U","MEAN_MOTION_DDOT":"0.0000000000000","APOAPSIS":"548.369","RCS_SIZE":"LARGE","EPHEMERIS_TYPE":"0","REV_AT_EPOCH":"6396","FILE":"3464394","EPOCH":"2022-05-25T18:47:01.214880","TIME_SYSTEM":"UTC","NORAD_CAT_ID":"48108","CENTER_NAME":"EARTH","TLE_LINE1":"1 48108U 21027S   22145.78265295  .00000968  00000-0  83929-4 0  9999","GP_ID":"204538500"},{"EPOCH":"2022-05-25T19:06:53.881344","FILE":"3464394","APOAPSIS":"548.288","RCS_SIZE":"LARGE","EPHEMERIS_TYPE":"0","REV_AT_EPOCH":"6383","REF_FRAME":"TEME","MEAN_ELEMENT_THEORY":"SGP4","CLASSIFICATION_TYPE":"U","MEAN_MOTION_DDOT":"0.0000000000000","GP_ID":"204537249","CENTER_NAME":"EARTH","TLE_LINE1":"1 48109U 21027T   22145.79645696  .00000178  00000-0  30840-4 0  9995","NORAD_CAT_ID":"48109","TIME_SYSTEM":"UTC","OBJECT_ID":"2021-027T","SITE":"AFETR","SEMIMAJOR_AXIS":"6925.361","COUNTRY_CODE":"US","BSTAR":"0.00003084000000","MEAN_ANOMALY":"299.3952","PERIOD":"95.592","RA_OF_ASC_NODE":"264.1635","OBJECT_TYPE":"PAYLOAD","PERIAPSIS":"546.164","INCLINATION":"53.0538","DECAY_DATE":null,"OBJECT_NAME":"STARLINK-2445","ELEMENT_SET_NO":"999","TLE_LINE2":"2 48109  53.0538 264.1635 0001534  60.7190 299.3952 15.06395925 63835","LAUNCH_DATE":"2021-04-07","MEAN_MOTION_DOT":"0.00000178","ARG_OF_PERICENTER":"60.7190","ECCENTRICITY":"0.00015340","MEAN_MOTION":"15.06395925"},{"MEAN_MOTION":"15.06401187","ECCENTRICITY":"0.00015290","ARG_OF_PERICENTER":"69.7242","MEAN_MOTION_DOT":"-0.00000704","LAUNCH_DATE":"2021-04-07","TLE_LINE2":"2 48110  53.0535 254.2735 0001529  69.7242 290.3911 15.06401187 63975","ELEMENT_SET_NO":"999","OBJECT_NAME":"STARLINK-2447","DECAY_DATE":null,"INCLINATION":"53.0535","PERIAPSIS":"546.151","OBJECT_TYPE":"PAYLOAD","PERIOD":"95.592","RA_OF_ASC_NODE":"254.2735","MEAN_ANOMALY":"290.3911","BSTAR":"-0.00002836600000","COUNTRY_CODE":"US","SEMIMAJOR_AXIS":"6925.345","SITE":"AFETR","OBJECT_ID":"2021-027U","TIME_SYSTEM":"UTC","NORAD_CAT_ID":"48110","TLE_LINE1":"1 48110U 21027U   22145.77156921 -.00000704  00000-0 -28366-4 0  9990","CENTER_NAME":"EARTH","GP_ID":"204537499","MEAN_MOTION_DDOT":"0.0000000000000","CLASSIFICATION_TYPE":"U","MEAN_ELEMENT_THEORY":"SGP4","REF_FRAME":"TEME","REV_AT_EPOCH":"6397","EPHEMERIS_TYPE":"0","APOAPSIS":"548.269","RCS_SIZE":"LARGE","FILE":"3464394","EPOCH":"2022-05-25T18:31:03.579744"},{"FILE":"3464394","EPOCH":"2022-05-25T18:20:28.288320","MEAN_ELEMENT_THEORY":"SGP4","REF_FRAME":"TEME","MEAN_MOTION_DDOT":"0.0000000000000","CLASSIFICATION_TYPE":"U","EPHEMERIS_TYPE":"0","RCS_SIZE":"LARGE","APOAPSIS":"548.247","REV_AT_EPOCH":"6397","TLE_LINE1":"1 48111U 21027V   22145.76421630  .00006777  00000-0  47338-3 0  9995","CENTER_NAME":"EARTH","GP_ID":"204537750","TIME_SYSTEM":"UTC","NORAD_CAT_ID":"48111","SITE":"AFETR","OBJECT_ID":"2021-027V","SEMIMAJOR_AXIS":"6925.334","PERIOD":"95.592","MEAN_ANOMALY":"289.0697","RA_OF_ASC_NODE":"254.2765","COUNTRY_CODE":"US","BSTAR":"0.00047338000000","OBJECT_NAME":"STARLINK-2448","DECAY_DATE":null,"ELEMENT_SET_NO":"999","OBJECT_TYPE":"PAYLOAD","INCLINATION":"53.0548","PERIAPSIS":"546.151","ARG_OF_PERICENTER":"71.0455","ECCENTRICITY":"0.00015130","MEAN_MOTION_DOT":"0.00006777","MEAN_MOTION":"15.06404697","LAUNCH_DATE":"2021-04-07","TLE_LINE2":"2 48111  53.0548 254.2765 0001513  71.0455 289.0697 15.06404697 63973"},{"FILE":"3464394","EPOCH":"2022-05-25T19:23:28.268448","REF_FRAME":"TEME","MEAN_ELEMENT_THEORY":"SGP4","CLASSIFICATION_TYPE":"U","MEAN_MOTION_DDOT":"0.0000000000000","RCS_SIZE":"LARGE","APOAPSIS":"548.325","EPHEMERIS_TYPE":"0","REV_AT_EPOCH":"6376","CENTER_NAME":"EARTH","TLE_LINE1":"1 48112U 21027W   22145.80796607  .00001157  00000-0  96606-4 0  9990","GP_ID":"204538000","TIME_SYSTEM":"UTC","NORAD_CAT_ID":"48112","SITE":"AFETR","OBJECT_ID":"2021-027W","SEMIMAJOR_AXIS":"6925.383","RA_OF_ASC_NODE":"269.1027","PERIOD":"95.593","MEAN_ANOMALY":"300.8885","COUNTRY_CODE":"US","BSTAR":"0.00009660600000","DECAY_DATE":null,"OBJECT_NAME":"STARLINK-2449","ELEMENT_SET_NO":"999","OBJECT_TYPE":"PAYLOAD","PERIAPSIS":"546.170","INCLINATION":"53.0548","MEAN_MOTION_DOT":"0.00001157","ECCENTRICITY":"0.00015560","ARG_OF_PERICENTER":"59.2257","MEAN_MOTION":"15.06388849","LAUNCH_DATE":"2021-04-07","TLE_LINE2":"2 48112  53.0548 269.1027 0001556  59.2257 300.8885 15.06388849 63763"},{"DECAY_DATE":null,"OBJECT_NAME":"STARLINK-2450","ELEMENT_SET_NO":"999","OBJECT_TYPE":"PAYLOAD","PERIAPSIS":"546.066","INCLINATION":"53.0549","MEAN_MOTION_DOT":"0.00000690","ARG_OF_PERICENTER":"78.4178","ECCENTRICITY":"0.00016750","MEAN_MOTION":"15.06395991","LAUNCH_DATE":"2021-04-07","TLE_LINE2":"2 48113  53.0549 264.9231 0001675  78.4178 281.6999 15.06395991 63793","SITE":"AFETR","OBJECT_ID":"2021-027X","SEMIMAJOR_AXIS":"6925.361","MEAN_ANOMALY":"281.6999","PERIOD":"95.592","RA_OF_ASC_NODE":"264.9231","COUNTRY_CODE":"US","BSTAR":"0.00006523000000","CENTER_NAME":"EARTH","TLE_LINE1":"1 48113U 21027X   22145.62691717  .00000690  00000-0  65230-4 0  9997","GP_ID":"204536749","TIME_SYSTEM":"UTC","NORAD_CAT_ID":"48113","FILE":"3464394","EPOCH":"2022-05-25T15:02:45.643488","REF_FRAME":"TEME","MEAN_ELEMENT_THEORY":"SGP4","CLASSIFICATION_TYPE":"U","MEAN_MOTION_DDOT":"0.0000000000000","APOAPSIS":"548.386","RCS_SIZE":"LARGE","EPHEMERIS_TYPE":"0","REV_AT_EPOCH":"6379"}];
